STARLINK-1039
1 44744U 19074AH  26090.47313003  .00045000  00000+0  18645-2 0  9996
2 44744  53.0589 114.8316 0001083 341.5875  18.5082 15.23489747351670
STARLINK-2249
1 48592U 21041AR  26090.83335647  .01040112  00000+0  39795-1 0  9994
2 48592  53.0547  41.8196 0001303  94.0485 264.1620 15.23632494  5825
